RAMSAT                  
1 48850U 98067SL  21212.38000149  .00007034  00000-0  13008-3 0  9997
2 48850  51.6421 123.8152 0003544 310.1852  49.8827 15.50227754  7322
SOAR                    
1 48851U 98067SM  21212.29994267  .00019544  00000-0  33399-3 0  9995
2 48851  51.6401 124.0288 0002761 301.9524  58.1197 15.51291620  7358
BD-28                   
1 48867U 98067SN  21212.38028237  .00007864  00000-0  14367-3 0  9993
2 48867  51.6421 123.8180 0002683 353.9577   6.1379 15.50386980  6079
MIR-SAT 1               
1 48868U 98067SP  21212.57647798  .00014577  00000-0  25824-3 0  9993
2 48868  51.6417 122.8778 0001835 315.2491  44.8350 15.50511967  6131
